[
    {
        "Altitude(m)": 716510.7894652787,
        "Argument of Periapsis(deg)": 0.004556048474650827,
        "Eccentricity": 0.0,
        "Inclination(deg)": 45.0,
        "Latitude(deg)": -41.82947967110882,
        "Longitude(deg)": 72.61122211692091,
        "Mean Anomaly(deg)": -109.93221334100768,
        "RAAN(deg)": 289.99569922341675,
        "Satellite Name": "Constellation 1 1291",
        "Satellite Number": 1291,
        "Semi-Major Axis(m)": 7083131.272910544,
        "Time(s)": 76
    },
    {
        "Altitude(m)": 716518.8713002731,
        "Argument of Periapsis(deg)": 0.004615996480896233,
        "Eccentricity": 0.0,
        "Inclination(deg)": 45.0,
        "Latitude(deg)": -41.84900234510234,
        "Longitude(deg)": 72.68389115423828,
        "Mean Anomaly(deg)": -109.8715122007578,
        "RAAN(deg)": 289.99564263425117,
        "Satellite Name": "Constellation 1 1291",
        "Satellite Number": 1291,
        "Semi-Major Axis(m)": 7083131.272910544,
        "Time(s)": 77
    },
    {
        "Altitude(m)": 716526.9317528356,
        "Argument of Periapsis(deg)": 0.004675944487141638,
        "Eccentricity": 0.0,
        "Inclination(deg)": 45.0,
        "Latitude(deg)": -41.868473596521035,
        "Longitude(deg)": 72.75660671622273,
        "Mean Anomaly(deg)": -109.81081106050794,
        "RAAN(deg)": 289.9955860450856,
        "Satellite Name": "Constellation 1 1291",
        "Satellite Number": 1291,
        "Semi-Major Axis(m)": 7083131.272910544,
        "Time(s)": 78
    },
    {
        "Altitude(m)": 716534.9707933868,
        "Argument of Periapsis(deg)": 0.004735892493387044,
        "Eccentricity": 0.0,
        "Inclination(deg)": 45.0,
        "Latitude(deg)": -41.88789335994201,
        "Longitude(deg)": 72.82936874012984,
        "Mean Anomaly(deg)": -109.75010992025797,
        "RAAN(deg)": 289.99552945592006,
        "Satellite Name": "Constellation 1 1291",
        "Satellite Number": 1291,
        "Semi-Major Axis(m)": 7083131.272910544,
        "Time(s)": 79
    },
    {
        "Altitude(m)": 716542.9883924352,
        "Argument of Periapsis(deg)": 0.004795840499632449,
        "Eccentricity": 0.0,
        "Inclination(deg)": 45.0,
        "Latitude(deg)": -41.907261570013,
        "Longitude(deg)": 72.90217716267622,
        "Mean Anomaly(deg)": -109.68940878000814,
        "RAAN(deg)": 289.9954728667544,
        "Satellite Name": "Constellation 1 1291",
        "Satellite Number": 1291,
        "Semi-Major Axis(m)": 7083131.272910544,
        "Time(s)": 80
    },
    {
        "Altitude(m)": 716550.9845205608,
        "Argument of Periapsis(deg)": 0.004855788505877855,
        "Eccentricity": 0.0,
        "Inclination(deg)": 45.0,
        "Latitude(deg)": -41.926578161453335,
        "Longitude(deg)": 72.97503192004008,
        "Mean Anomaly(deg)": -109.62870763975816,
        "RAAN(deg)": 289.9954162775889,
        "Satellite Name": "Constellation 1 1291",
        "Satellite Number": 1291,
        "Semi-Major Axis(m)": 7083131.272910544,
        "Time(s)": 81
    },
    {
        "Altitude(m)": 716558.95914842,
        "Argument of Periapsis(deg)": 0.00491573651212326,
        "Eccentricity": 0.0,
        "Inclination(deg)": 45.0,
        "Latitude(deg)": -41.94584306905468,
        "Longitude(deg)": 73.04793277976239,
        "Mean Anomaly(deg)": -109.56800649950831,
        "RAAN(deg)": 289.9953596884233,
        "Satellite Name": "Constellation 1 1291",
        "Satellite Number": 1291,
        "Semi-Major Axis(m)": 7083131.272910544,
        "Time(s)": 82
    },
    {
        "Altitude(m)": 716566.9122467531,
        "Argument of Periapsis(deg)": 0.004975684518368666,
        "Eccentricity": 0.0,
        "Inclination(deg)": 45.0,
        "Latitude(deg)": -41.965056227681636,
        "Longitude(deg)": 73.12088001313431,
        "Mean Anomaly(deg)": -109.50730535925841,
        "RAAN(deg)": 289.99530309925774,
        "Satellite Name": "Constellation 1 1291",
        "Satellite Number": 1291,
        "Semi-Major Axis(m)": 7083131.272910544,
        "Time(s)": 83
    },
    {
        "Altitude(m)": 716574.8437863691,
        "Argument of Periapsis(deg)": 0.005035632524614072,
        "Eccentricity": 0.0,
        "Inclination(deg)": 45.0,
        "Latitude(deg)": -41.98421757227304,
        "Longitude(deg)": 73.19387338661558,
        "Mean Anomaly(deg)": -109.44660421900846,
        "RAAN(deg)": 289.9952465100922,
        "Satellite Name": "Constellation 1 1291",
        "Satellite Number": 1291,
        "Semi-Major Axis(m)": 7083131.272910544,
        "Time(s)": 84
    },
    {
        "Altitude(m)": 716582.7537381671,
        "Argument of Periapsis(deg)": 0.0050955805308594785,
        "Eccentricity": 0.0,
        "Inclination(deg)": 45.0,
        "Latitude(deg)": -42.0033270378424,
        "Longitude(deg)": 73.2669128342206,
        "Mean Anomaly(deg)": -109.38590307875863,
        "RAAN(deg)": 289.9951899209266,
        "Satellite Name": "Constellation 1 1291",
        "Satellite Number": 1291,
        "Semi-Major Axis(m)": 7083131.272910544,
        "Time(s)": 85
    },
    {
        "Altitude(m)": 716590.6420731087,
        "Argument of Periapsis(deg)": 0.005155528537104883,
        "Eccentricity": 0.0,
        "Inclination(deg)": 45.0,
        "Latitude(deg)": -42.02238455947902,
        "Longitude(deg)": 73.33999828942162,
        "Mean Anomaly(deg)": -109.32520193850876,
        "RAAN(deg)": 289.99513333176105,
        "Satellite Name": "Constellation 1 1291",
        "Satellite Number": 1291,
        "Semi-Major Axis(m)": 7083131.272910544,
        "Time(s)": 86
    },
    {
        "Altitude(m)": 716598.5087622463,
        "Argument of Periapsis(deg)": 0.0052154765433502885,
        "Eccentricity": 0.0,
        "Inclination(deg)": 45.0,
        "Latitude(deg)": -42.0413900723486,
        "Longitude(deg)": 73.41312968514806,
        "Mean Anomaly(deg)": -109.26450079825882,
        "RAAN(deg)": 289.9950767425955,
        "Satellite Name": "Constellation 1 1291",
        "Satellite Number": 1291,
        "Semi-Major Axis(m)": 7083131.272910544,
        "Time(s)": 87
    },
    {
        "Altitude(m)": 716606.353776707,
        "Argument of Periapsis(deg)": 0.005275424549595694,
        "Eccentricity": 0.0,
        "Inclination(deg)": 45.0,
        "Latitude(deg)": -42.06034351169417,
        "Longitude(deg)": 73.48630695378536,
        "Mean Anomaly(deg)": -109.20379965800882,
        "RAAN(deg)": 289.9950201534299,
        "Satellite Name": "Constellation 1 1291",
        "Satellite Number": 1291,
        "Semi-Major Axis(m)": 7083131.272910544,
        "Time(s)": 88
    },
    {
        "Altitude(m)": 716614.1770876839,
        "Argument of Periapsis(deg)": 0.0053353725558411,
        "Eccentricity": 0.0,
        "Inclination(deg)": 45.0,
        "Latitude(deg)": -42.079244812836976,
        "Longitude(deg)": 73.55952985907776,
        "Mean Anomaly(deg)": -109.14309851775909,
        "RAAN(deg)": 289.9949635642643,
        "Satellite Name": "Constellation 1 1291",
        "Satellite Number": 1291,
        "Semi-Major Axis(m)": 7083131.272910544,
        "Time(s)": 89
    },
    {
        "Altitude(m)": 716621.9786664675,
        "Argument of Periapsis(deg)": 0.005395320562086505,
        "Eccentricity": 0.0,
        "Inclination(deg)": 45.0,
        "Latitude(deg)": -42.098093911177095,
        "Longitude(deg)": 73.63279866851602,
        "Mean Anomaly(deg)": -109.08239737750911,
        "RAAN(deg)": 289.99490697509873,
        "Satellite Name": "Constellation 1 1291",
        "Satellite Number": 1291,
        "Semi-Major Axis(m)": 7083131.272910544,
        "Time(s)": 90
    },
    {
        "Altitude(m)": 716629.75848442,
        "Argument of Periapsis(deg)": 0.00545526856833191,
        "Eccentricity": 0.0,
        "Inclination(deg)": 45.0,
        "Latitude(deg)": -42.11689074219464,
        "Longitude(deg)": 73.70611314475437,
        "Mean Anomaly(deg)": -109.02169623725915,
        "RAAN(deg)": 289.9948503859332,
        "Satellite Name": "Constellation 1 1291",
        "Satellite Number": 1291,
        "Semi-Major Axis(m)": 7083131.272910544,
        "Time(s)": 91
    },
    {
        "Altitude(m)": 716637.5165129728,
        "Argument of Periapsis(deg)": 0.005515216574577317,
        "Eccentricity": 0.0,
        "Inclination(deg)": 45.0,
        "Latitude(deg)": -42.135635241450345,
        "Longitude(deg)": 73.77947321799796,
        "Mean Anomaly(deg)": -108.96099509700932,
        "RAAN(deg)": 289.9947937967676,
        "Satellite Name": "Constellation 1 1291",
        "Satellite Number": 1291,
        "Semi-Major Axis(m)": 7083131.272910544,
        "Time(s)": 92
    },
    {
        "Altitude(m)": 716645.2527236454,
        "Argument of Periapsis(deg)": 0.005575164580822722,
        "Eccentricity": 0.0,
        "Inclination(deg)": 45.0,
        "Latitude(deg)": -42.15432734458649,
        "Longitude(deg)": 73.85287881790579,
        "Mean Anomaly(deg)": -108.90029395675946,
        "RAAN(deg)": 289.9947372076021,
        "Satellite Name": "Constellation 1 1291",
        "Satellite Number": 1291,
        "Semi-Major Axis(m)": 7083131.272910544,
        "Time(s)": 93
    },
    {
        "Altitude(m)": 716652.9670880366,
        "Argument of Periapsis(deg)": 0.005635112587068129,
        "Eccentricity": 0.0,
        "Inclination(deg)": 45.0,
        "Latitude(deg)": -42.17296698732783,
        "Longitude(deg)": 73.92632987358994,
        "Mean Anomaly(deg)": -108.83959281650945,
        "RAAN(deg)": 289.99468061843646,
        "Satellite Name": "Constellation 1 1291",
        "Satellite Number": 1291,
        "Semi-Major Axis(m)": 7083131.272910544,
        "Time(s)": 94
    }
]